{
  "norad_id": 59458,
  "name": "STARLINK-31625",
  "history": [
    {
      "epoch": "2026-03-28T20:38:00.195072",
      "apogee_km": 483.82237756205086,
      "perigee_km": 482.22743186568187,
      "latitude_deg": -29.35823349170219,
      "longitude_deg": -151.6664499200415,
      "semi_major_axis_km": 6861.1619047138665,
      "eccentricity": 0.00011623,
      "inclination_deg": 43.0029,
      "raan_deg": 286.332,
      "arg_perigee_deg": 277.3452,
      "mean_anomaly_deg": 82.7268,
      "mean_motion_rev_day": 15.27588079
    }
  ]
}