{"fetched_at":"2026-03-30T13:17:50Z","count":15418,"tles":[{"name":"STARLINK-31625","line1":"1 59458U 24068D   26087.85972448  .00002179  00000+0  88656-4 0  9996","line2":"2 59458  43.0029 286.3320 0001162 277.3452  82.7268 15.27588079111452","category":"Starlink"}]}